ONEWEB-0449             
1 51642U 22012W   22095.91667824 -.01159820  00000+0 -33447+0 0  9993
2 51642  87.4868 343.7374 0017245  54.1399  48.7414 14.47896796  9392
ONEWEB-0451             
1 51643U 22012X   22095.91667824 -.00016277  00000+0 -15522-2 0  9998
2 51643  87.1883 342.4845 0002268  95.5282  30.9208 14.93580827  9474
ONEWEB-0452             
1 51644U 22012Y   22095.91667824 -.00014873  00000+0 -14184-2 0  9992
2 51644  87.1880 342.4884 0001074  89.0485 357.2512 14.93577536  9489
ONEWEB-0455             
1 51645U 22012Z   22095.91667824 -.01162840  00000+0 -34670+0 0  9991
2 51645  87.4790 343.7462 0019237  69.9857 163.6835 14.46286685  9385
ONEWEB-0456             
1 51646U 22012AA  22095.91667824 -.01158002  00000+0 -31159+0 0  9996
2 51646  87.5094 343.7254 0018584  63.3029 264.6874 14.51150385  9418
ONEWEB-0457             
1 51647U 22012AB  22095.91667824 -.01165201  00000+0 -32578+0 0  9992
2 51647  87.4986 343.7233 0018108  61.4236 352.2387 14.49368279  3536
ONEWEB-0458             
1 51648U 22012AC  22095.91667824 -.01158108  00000+0 -33340+0 0  9999
2 51648  87.4874 343.7314 0016733  49.5938 154.6479 14.47981312  3523
ONEWEB-0461             
1 51649U 22012AD  22095.91667824 -.00021012  00000+0 -20062-2 0  9992
2 51649  87.2483 342.7655 0002994 112.7615 127.5712 14.93541727  9465
ONEWEB-0463             
1 51650U 22012AE  22095.91667824 -.00018194  00000+0 -17356-2 0  9993
2 51650  87.1886 342.4874 0001429  35.7063 124.3414 14.93572801  9478
ONEWEB-0464             
1 51651U 22012AF  22095.91667824 -.01160329  00000+0 -32325+0 0  9993
2 51651  87.4927 343.7229 0016285  56.1618 358.6309 14.49551085  9405
ONEWEB-0468             
1 51652U 22012AG  22095.91667824 -.01146322  00000+0 -33563+0 0  9996
2 51652  87.4782 343.7083 0017902  59.8724 269.3512 14.47127719  3531
ONEWEB-0473             
1 51653U 22012AH  22095.91667824 -.01166315  00000+0 -33261+0 0  9996
2 51653  87.4894 343.7301 0017192  53.3707 224.1806 14.48445903  3534
ONEWEB-0474             
1 51654U 22012AJ  22095.91667824 -.01164571  00000+0 -34119+0 0  9992
2 51654  87.4785 343.7504 0018096  71.1262 248.9185 14.47144752  3538
ONEWEB-0475             
1 51655U 22012AK  22095.91667824 -.00014277  00000+0 -13620-2 0  9996
2 51655  87.1944 342.5193 0001575  70.5978 341.3308 14.93565717  3573
